GLOBALSTAR M024         
1 25883U 99043A   24188.47027653 -.00000026  00000+0  13939-2 0  9993
2 25883  52.0020  80.6742 0000931 281.0000 249.6981 11.10156689 76468
GLOBALSTAR M027         
1 25884U 99043B   24188.55714392 -.00000138  00000+0 -27974-2 0  9995
2 25884  52.0184 148.6678 0020896 152.9979 207.1906 11.04368906103058
GLOBALSTAR M054         
1 25885U 99043C   24188.60070339  .00000014  00000+0  21636-2 0  9998
2 25885  52.0164 333.8673 0004265 313.8996 129.4675 11.39206312 79667
GLOBALSTAR M053         
1 25886U 99043D   24188.56616176 -.00000031  00000+0  11014-2 0  9998
2 25886  51.9973 261.8718 0003909 211.7116 290.7399 11.27656569 80452
GLOBALSTAR M058         
1 25907U 99049A   24188.58577809 -.00000143  00000+0 -78707-3 0  9997
2 25907  51.9961 312.0089 0001675 339.9890  20.0879 11.93180345500285
GLOBALSTAR M050         
1 25908U 99049B   24188.87103260 -.00000064  00000+0  27341-3 0  9995
2 25908  52.0010 344.7205 0009760  67.1378  85.2826 12.07435784111200
GLOBALSTAR M033         
1 25909U 99049C   24188.52673763 -.00000114  00000+0 -21584-3 0  9998
2 25909  51.9896 241.3771 0012496 274.6961  85.2459 12.20273029493543
GLOBALSTAR M055         
1 25910U 99049D   24188.64548415 -.00000025  00000+0  58957-3 0  9992
2 25910  52.0014 268.6059 0007576 134.7775 225.3693 12.29404035126005
